OBJECT_NAME,OBJECT_ID,EPOCH,MEAN_MOTION,ECCENTRICITY,INCLINATION,RA_OF_ASC_NODE,ARG_OF_PERICENTER,MEAN_ANOMALY,EPHEMERIS_TYPE,CLASSIFICATION_TYPE,NORAD_CAT_ID,ELEMENT_SET_NO,REV_AT_EPOCH,BSTAR,MEAN_MOTION_DOT,MEAN_MOTION_DDOT
TELSTAR 18V,2018-069A,2026-06-05T20:28:38.798112,1.00270508,.0001987,0.0169,290.8681,142.3234,266.2636,0,U,43611,999,2852,0,-.281E-5,0
AZERSPACE 2 (IS-38),2018-074A,2026-06-05T22:42:18.667296,1.00271693,.00015089,0.0175,331.2890,106.1415,202.6298,0,U,43632,999,2833,0,.149E-5,0
HORIZONS-3E,2018-074B,2026-06-06T14:39:05.371776,1.00270152,.00008889,0.0028,267.2125,3.6571,12.9260,0,U,43633,999,2823,0,-.17E-6,0
AEHF-4 (USA 288),2018-079A,2026-06-06T13:09:10.941984,1.00277203,.00607091,1.4291,3.0315,357.1032,24.4898,0,U,43651,999,2819,0,-.262E-5,0
BEIDOU-3 G1,2018-085A,2026-06-06T12:31:18.342912,1.00271936,.00085655,2.8408,97.6753,346.2518,158.8223,0,U,43683,999,2795,0,-.95E-6,0
GSAT-29,2018-089A,2026-06-06T14:10:30.840672,1.00271215,.0003681,0.0433,114.2221,318.2268,90.2188,0,U,43698,999,2768,0,.99E-6,0
ES'HAIL 2,2018-090A,2026-06-06T13:35:42.025632,1.00273434,.00019501,0.0157,17.2220,93.2655,14.2182,0,U,43700,999,2757,0,.158E-5,0
GEO-KOMPSAT-2A,2018-100A,2026-06-06T14:04:57.829152,1.00272064,.00024015,0.0494,135.6622,306.8421,152.0067,0,U,43823,999,2752,0,-.33E-5,0
GSAT-11,2018-100B,2026-06-06T13:49:25.709664,1.00271713,.00079634,0.0541,256.9684,188.2992,91.0918,0,U,43824,999,2737,0,-.64E-6,0
GSAT-7A,2018-105A,2026-06-06T03:30:17.144064,1.00270199,.0002483,0.0225,257.7786,160.9781,311.2056,0,U,43864,999,2733,0,.39E-6,0
COSMOS 2533,2018-107A,2026-06-06T15:09:54.523584,1.00273314,.00005402,0.0456,96.0693,359.5134,96.9423,0,U,43867,999,2734,0,-.25E-6,0
TJS-3,2018-110A,2026-06-05T17:55:42.450240,1.00274157,.0001937,2.5148,80.6297,70.0878,160.6149,0,U,43874,999,2730,0,-.203E-5,0
ZHONGXING-2D,2019-001A,2026-06-06T14:44:31.907616,1.00270221,.00008346,0.0451,84.4910,289.5678,232.1252,0,U,43920,999,5397,0,-.324E-5,0
HELLAS-SAT 4 & SGS-1,2019-007A,2026-06-06T13:39:26.667360,1.00271154,.00050665,0.0658,133.3749,4.9292,0.5650,0,U,44034,999,2726,0,.166E-5,0
GSAT-31,2019-007B,2026-06-05T12:01:59.751264,1.00269959,.00015125,0.0133,262.5585,106.3302,113.4048,0,U,44035,999,2685,0,.138E-5,0
NUSANTARA SATU,2019-009A,2026-06-05T17:38:01.084128,1.00270076,.00044228,0.0406,143.4899,331.2363,189.9576,0,U,44048,999,2665,0,-.222E-5,0
ZHONGXING-6C,2019-012A,2026-06-06T14:44:31.884288,1.00269787,.00134687,0.1379,80.2766,330.0941,196.2170,0,U,44067,999,2663,0,-.322E-5,0
WGS 10 (USA 291),2019-014A,2026-06-06T03:29:32.216928,1.00273431,.00004186,0.0171,358.3444,31.8106,337.1138,0,U,44071,999,2650,0,.59E-6,0
TIANLIAN 2-01,2019-017A,2026-06-06T13:50:18.125952,1.00271687,.00009218,0.5117,83.1268,2.3959,94.0734,0,U,44076,999,2654,0,-.93E-6,0
ARABSAT-6A,2019-021A,2026-06-06T13:37:04.395072,1.00273417,.00007898,0.0528,13.2836,46.6454,69.8246,0,U,44186,999,2605,0,.167E-5,0
BEIDOU-3 IGSO-1,2019-023A,2026-06-04T14:06:37.446624,1.00295778,.00254705,58.6768,37.7810,225.7549,318.3782,0,U,44204,999,708,0,-.211E-5,0
BEIDOU-2 G8,2019-027A,2026-06-06T14:09:27.398016,1.00275213,.00106583,1.6309,74.4870,284.4752,252.9095,0,U,44231,999,2597,0,-.233E-5,0
YAMAL 601,2019-031A,2026-06-06T11:59:36.247776,1.00273346,.00025273,0.0175,1.5693,78.4074,43.8529,0,U,44307,999,2582,0,.133E-5,0
AT&T T-16,2019-034A,2026-06-05T14:44:55.316832,1.00272858,.0000379,0.0214,58.9245,229.6587,85.8428,0,U,44333,999,2551,0,-.103E-5,0
EUTELSAT 7C,2019-034B,2026-06-05T03:20:38.766048,1.00272377,.0003403,0.0743,175.0991,244.7473,250.8953,0,U,44334,999,671,0,.61E-6,0
BEIDOU-3 IGSO-2,2019-035A,2026-06-06T13:55:17.483808,1.00270343,.00398392,55.2446,158.9549,216.2059,208.5586,0,U,44337,999,2556,0,-.62E-6,0
COSMOS 2539,2019-048A,2026-06-06T15:14:23.175744,1.00269386,.0000415,0.0370,96.4456,52.5217,346.6880,0,U,44457,999,2512,0,.94E-6,0
EDRS-C,2019-049A,2026-06-04T21:05:00.500064,1.00271120,.0001256,0.0048,11.5532,89.2326,251.2899,0,U,44475,999,2508,0,-.25E-5,0
INTELSAT 39 (IS-39),2019-049B,2026-06-06T15:08:56.658912,1.00266909,.00002783,0.0173,316.2772,327.6995,260.2628,0,U,44476,999,2502,0,.48E-6,0
AMOS-17,2019-050A,2026-06-06T13:33:12.265920,1.00274219,.00017736,0.0195,316.7490,149.9449,8.6027,0,U,44479,999,2508,0,.123E-5,0
AEHF-5 (USA 292),2019-051A,2026-06-06T12:12:05.050656,1.00268636,.00670963,1.4635,335.3361,1.1446,194.5152,0,U,44481,999,2515,0,-.245E-5,0
EUTELSAT 5 WEST B,2019-067A,2026-06-06T13:26:46.755168,1.00272089,.00032762,0.0640,342.2855,93.9283,15.4672,0,U,44624,999,2433,0,-.29E-6,0
