TELSTAR 18V             
1 43611U 18069A   26156.85322683 -.00000281  00000+0  00000+0 0  9996
2 43611   0.0169 290.8681 0001987 142.3234 266.2636  1.00270508 28522
AZERSPACE 2 (IS-38)     
1 43632U 18074A   26156.94604939  .00000149  00000+0  00000+0 0  9994
2 43632   0.0175 331.2890 0001508 106.1415 202.6298  1.00271693 28335
HORIZONS-3E             
1 43633U 18074B   26157.61047884 -.00000017  00000+0  00000+0 0  9995
2 43633   0.0028 267.2125 0000888   3.6571  12.9260  1.00270152 28235
AEHF-4 (USA 288)        
1 43651U 18079A   26157.54804331 -.00000262  00000+0  00000+0 0  9992
2 43651   1.4291   3.0315 0060709 357.1032  24.4898  1.00277203 28190
BEIDOU-3 G1             
1 43683U 18085A   26157.52174008 -.00000095  00000+0  00000+0 0  9997
2 43683   2.8408  97.6753 0008565 346.2518 158.8223  1.00271936 27959
GSAT-29                 
1 43698U 18089A   26157.59063473  .00000099  00000+0  00000+0 0  9990
2 43698   0.0433 114.2221 0003681 318.2268  90.2188  1.00271215 27683
ES'HAIL 2               
1 43700U 18090A   26157.56645863  .00000158  00000+0  00000+0 0  9998
2 43700   0.0157  17.2220 0001950  93.2655  14.2182  1.00273434 27571
GEO-KOMPSAT-2A          
1 43823U 18100A   26157.58678043 -.00000330  00000+0  00000+0 0  9997
2 43823   0.0494 135.6622 0002401 306.8421 152.0067  1.00272064 27524
GSAT-11                 
1 43824U 18100B   26157.57599201 -.00000064  00000+0  00000+0 0  9999
2 43824   0.0541 256.9684 0007963 188.2992  91.0918  1.00271713 27376
GSAT-7A                 
1 43864U 18105A   26157.14603176  .00000039  00000+0  00000+0 0  9999
2 43864   0.0225 257.7786 0002483 160.9781 311.2056  1.00270199 27339
COSMOS 2533             
1 43867U 18107A   26157.63188106 -.00000025  00000+0  00000+0 0  9995
2 43867   0.0456  96.0693 0000540 359.5134  96.9423  1.00273314 27347
TJS-3                   
1 43874U 18110A   26156.74701910 -.00000203  00000+0  00000+0 0  9990
2 43874   2.5148  80.6297 0001937  70.0878 160.6149  1.00274157 27306
ZHONGXING-2D            
1 43920U 19001A   26157.61425819 -.00000324  00000+0  00000+0 0  9994
2 43920   0.0451  84.4910 0000834 289.5678 232.1252  1.00270221 53972
HELLAS-SAT 4 & SGS-1    
1 44034U 19007A   26157.56905865  .00000166  00000+0  00000+0 0  9998
2 44034   0.0658 133.3749 0005066   4.9292   0.5650  1.00271154 27263
GSAT-31                 
1 44035U 19007B   26156.50138601  .00000138  00000+0  00000+0 0  9997
2 44035   0.0133 262.5585 0001512 106.3302 113.4048  1.00269959 26855
NUSANTARA SATU          
1 44048U 19009A   26156.73473477 -.00000222  00000+0  00000+0 0  9996
2 44048   0.0406 143.4899 0004422 331.2363 189.9576  1.00270076 26650
ZHONGXING-6C            
1 44067U 19012A   26157.61425792 -.00000322  00000+0  00000+0 0  9997
2 44067   0.1379  80.2766 0013468 330.0941 196.2170  1.00269787 26637
WGS 10 (USA 291)        
1 44071U 19014A   26157.14551177  .00000059  00000+0  00000+0 0  9995
2 44071   0.0171 358.3444 0000418  31.8106 337.1138  1.00273431 26500
TIANLIAN 2-01           
1 44076U 19017A   26157.57659868 -.00000093  00000+0  00000+0 0  9995
2 44076   0.5117  83.1268 0000921   2.3959  94.0734  1.00271687 26541
ARABSAT-6A              
1 44186U 19021A   26157.56741198  .00000167  00000+0  00000+0 0  9990
2 44186   0.0528  13.2836 0000789  46.6454  69.8246  1.00273417 26059
BEIDOU-3 IGSO-1         
1 44204U 19023A   26155.58793341 -.00000211  00000+0  00000+0 0  9991
2 44204  58.6768  37.7810 0025470 225.7549 318.3782  1.00295778  7080
BEIDOU-2 G8             
1 44231U 19027A   26157.58990044 -.00000233  00000+0  00000+0 0  9990
2 44231   1.6309  74.4870 0010658 284.4752 252.9095  1.00275213 25973
YAMAL 601               
1 44307U 19031A   26157.49972509  .00000133  00000+0  00000+0 0  9993
2 44307   0.0175   1.5693 0002527  78.4074  43.8529  1.00273346 25827
AT&T T-16               
1 44333U 19034A   26156.61452913 -.00000103  00000+0  00000+0 0  9998
2 44333   0.0214  58.9245 0000379 229.6587  85.8428  1.00272858 25518
EUTELSAT 7C             
1 44334U 19034B   26156.13933757  .00000061  00000+0  00000+0 0  9998
2 44334   0.0743 175.0991 0003403 244.7473 250.8953  1.00272377  6712
BEIDOU-3 IGSO-2         
1 44337U 19035A   26157.58006347 -.00000062  00000+0  00000+0 0  9990
2 44337  55.2446 158.9549 0039839 216.2059 208.5586  1.00270343 25569
COSMOS 2539             
1 44457U 19048A   26157.63499046  .00000094  00000+0  00000+0 0  9999
2 44457   0.0370  96.4456 0000415  52.5217 346.6880  1.00269386 25122
EDRS-C                  
1 44475U 19049A   26155.87847801 -.00000250  00000+0  00000+0 0  9995
2 44475   0.0048  11.5532 0001256  89.2326 251.2899  1.00271120 25084
INTELSAT 39 (IS-39)     
1 44476U 19049B   26157.63121133  .00000048  00000+0  00000+0 0  9999
2 44476   0.0173 316.2772 0000278 327.6995 260.2628  1.00266909 25022
AMOS-17                 
1 44479U 19050A   26157.56472530  .00000123  00000+0  00000+0 0  9990
2 44479   0.0195 316.7490 0001773 149.9449   8.6027  1.00274219 25087
AEHF-5 (USA 292)        
1 44481U 19051A   26157.50839179 -.00000245  00000+0  00000+0 0  9990
2 44481   1.4635 335.3361 0067096   1.1446 194.5152  1.00268636 25152
EUTELSAT 5 WEST B       
1 44624U 19067A   26157.56026337 -.00000029  00000+0  00000+0 0  9996
2 44624   0.0640 342.2855 0003276  93.9283  15.4672  1.00272089 24339
